GLOBALSTAR M023 [+]     
1 25621U 99004A   23336.30073317 -.00000151  00000+0 -26391-3 0  9991
2 25621  52.0131 327.3506 0009908 323.7545 140.2051 12.62446895144639
GLOBALSTAR M040 [-]     
1 25622U 99004B   23336.29613394 -.00000019  00000+0  47533-3 0  9998
2 25622  51.9937 330.6976 0000328 235.2449 227.3875 12.61962014144183
GLOBALSTAR M036 [-]     
1 25623U 99004C   23336.57977778 -.00000117  00000+0 -49921-3 0  9992
2 25623  51.9977 283.1711 0011886  55.3187 351.9352 11.86560194112197
GLOBALSTAR M038 [-]     
1 25624U 99004D   23336.22389671 -.00000032  00000+0  52046-3 0  9991
2 25624  51.9971 252.7849 0001860 348.3976 176.8682 12.32488979132956
GLOBALSTAR M022 [-]     
1 25649U 99012A   23336.42406366 -.00000043  00000+0  53139-3 0  9996
2 25649  52.0070  20.7119 0003014 136.3454 327.3202 12.02473105108672
GLOBALSTAR M041 [-]     
1 25650U 99012B   23336.07281383 -.00000012  00000+0  94404-3 0  9995
2 25650  52.0016 245.9526 0001576 313.3330  46.7375 11.96650593110865
GLOBALSTAR M046 [-]     
1 25651U 99012C   23336.53677382  .00000007  00000+0  10526-2 0  9990
2 25651  52.0076 351.0767 0002122 205.5802 323.5255 12.09378792115582
GLOBALSTAR M037 [+]     
1 25652U 99012D   23336.56751522 -.00000033  00000+0  39413-3 0  9990
2 25652  51.9997  97.3705 0002038  47.4255  36.0434 12.62390597140215
